[{"OBJECT_NAME":"YAOGAN-28","OBJECT_ID":"2015-064A","EPOCH":"2026-03-09T23:07:10.370208","MEAN_MOTION":15.26008,"ECCENTRICITY":0.00111911,"INCLINATION":97.2901,"RA_OF_ASC_NODE":209.4389,"ARG_OF_PERICENTER":175.4532,"MEAN_ANOMALY":184.6811,"EPHEMERIS_TYPE":0,"CLASSIFICATION_TYPE":"U","NORAD_CAT_ID":41026,"ELEMENT_SET_NO":999,"REV_AT_EPOCH":57554,"BSTAR":0.00039691695,"MEAN_MOTION_DOT":0.00010159,"MEAN_MOTION_DDOT":0},{"OBJECT_NAME":"STARLINK-31946","OBJECT_ID":"2024-106U","EPOCH":"2026-03-09T03:16:02.865792","MEAN_MOTION":15.27581519,"ECCENTRICITY":7.356e-5,"INCLINATION":43.0016,"RA_OF_ASC_NODE":336.0354,"ARG_OF_PERICENTER":313.8976,"MEAN_ANOMALY":46.1815,"EPHEMERIS_TYPE":0,"CLASSIFICATION_TYPE":"U","NORAD_CAT_ID":59940,"ELEMENT_SET_NO":999,"REV_AT_EPOCH":9106,"BSTAR":4.9804081e-5,"MEAN_MOTION_DOT":1.109e-5,"MEAN_MOTION_DDOT":0}]
